start=new Date('2021-11-10T00:00:00.000Z').valueOf();
sats=[{"TIME_SYSTEM":"UTC","OBJECT_NAME":"STARLINK-1688","RCS_SIZE":"LARGE","PERIAPSIS":"546.032","MEAN_ELEMENT_THEORY":"SGP4","GP_ID":"189338657","MEAN_MOTION_DDOT":"0.0000000000000","APOAPSIS":"548.446","DECAY_DATE":null,"ARG_OF_PERICENTER":"58.3603","REF_FRAME":"TEME","FILE":"3210161","MEAN_MOTION":"15.06391710","MEAN_ANOMALY":"301.7556","PERIOD":"95.593","OBJECT_TYPE":"PAYLOAD","TLE_LINE2":"2 46371  53.0534 254.5060 0001743  58.3603 301.7556 15.06391710 66287","NORAD_CAT_ID":"46371","ECCENTRICITY":"0.00017430","SEMIMAJOR_AXIS":"6925.374","SITE":"AFETR","REV_AT_EPOCH":"6628","INCLINATION":"53.0534","MEAN_MOTION_DOT":"0.00004008","RA_OF_ASC_NODE":"254.5060","CLASSIFICATION_TYPE":"U","OBJECT_ID":"2020-062AY","COUNTRY_CODE":"US","ELEMENT_SET_NO":"999","EPHEMERIS_TYPE":"0","BSTAR":"0.00028785000000","EPOCH":"2021-11-09T13:54:58.074048","CENTER_NAME":"EARTH","LAUNCH_DATE":"2020-09-03","TLE_LINE1":"1 46371U 20062AY  21313.57983882  .00004008  00000-0  28785-3 0  9996"},{"NORAD_CAT_ID":"46372","ECCENTRICITY":"0.00017830","SEMIMAJOR_AXIS":"6925.339","REV_AT_EPOCH":"6600","INCLINATION":"53.0532","MEAN_MOTION_DOT":"0.00004686","SITE":"AFETR","ELEMENT_SET_NO":"999","RA_OF_ASC_NODE":"274.4556","CLASSIFICATION_TYPE":"U","OBJECT_ID":"2020-062AZ","COUNTRY_CODE":"US","EPOCH":"2021-11-09T14:08:13.386048","CENTER_NAME":"EARTH","LAUNCH_DATE":"2020-09-03","TLE_LINE1":"1 46372U 20062AZ  21313.58904382  .00004686  00000-0  33327-3 0  9996","BSTAR":"0.00033327000000","EPHEMERIS_TYPE":"0","RCS_SIZE":"LARGE","PERIAPSIS":"545.969","MEAN_ELEMENT_THEORY":"SGP4","TIME_SYSTEM":"UTC","OBJECT_NAME":"STARLINK-1689","GP_ID":"189362157","DECAY_DATE":null,"ARG_OF_PERICENTER":"67.9478","APOAPSIS":"548.439","MEAN_MOTION_DDOT":"0.0000000000000","PERIOD":"95.592","OBJECT_TYPE":"PAYLOAD","TLE_LINE2":"2 46372  53.0532 274.4556 0001783  67.9478 292.1700 15.06403197 66004","REF_FRAME":"TEME","FILE":"3210180","MEAN_ANOMALY":"292.1700","MEAN_MOTION":"15.06403197"},{"RCS_SIZE":"LARGE","MEAN_ELEMENT_THEORY":"SGP4","PERIAPSIS":"543.199","OBJECT_NAME":"STARLINK-1711","TIME_SYSTEM":"UTC","GP_ID":"189337655","ARG_OF_PERICENTER":"37.4647","DECAY_DATE":null,"MEAN_MOTION_DDOT":"0.0000000000000","APOAPSIS":"551.264","TLE_LINE2":"2 46374  53.0538 205.2927 0005823  37.4647 322.6747 15.06394063 66950","PERIOD":"95.593","OBJECT_TYPE":"PAYLOAD","MEAN_MOTION":"15.06394063","MEAN_ANOMALY":"322.6747","REF_FRAME":"TEME","FILE":"3210161","SEMIMAJOR_AXIS":"6925.367","NORAD_CAT_ID":"46374","ECCENTRICITY":"0.00058230","MEAN_MOTION_DOT":"0.00005870","INCLINATION":"53.0538","REV_AT_EPOCH":"6695","SITE":"AFETR","ELEMENT_SET_NO":"999","OBJECT_ID":"2020-062BB","COUNTRY_CODE":"US","RA_OF_ASC_NODE":"205.2927","CLASSIFICATION_TYPE":"U","LAUNCH_DATE":"2020-09-03","TLE_LINE1":"1 46374U 20062BB  21313.40384926  .00005870  00000-0  41271-3 0  9998","EPOCH":"2021-11-09T09:41:32.576064","CENTER_NAME":"EARTH","EPHEMERIS_TYPE":"0","BSTAR":"0.00041271000000"},{"PERIAPSIS":"546.245","MEAN_ELEMENT_THEORY":"SGP4","RCS_SIZE":"LARGE","OBJECT_NAME":"STARLINK-1724","TIME_SYSTEM":"UTC","GP_ID":"189337907","ARG_OF_PERICENTER":"66.5593","DECAY_DATE":null,"MEAN_MOTION_DDOT":"0.0000000000000","APOAPSIS":"548.193","TLE_LINE2":"2 46375  53.0523 229.9264 0001407  66.5593 293.5544 15.06398241 66615","OBJECT_TYPE":"PAYLOAD","PERIOD":"95.592","MEAN_ANOMALY":"293.5544","MEAN_MOTION":"15.06398241","FILE":"3210161","REF_FRAME":"TEME","SEMIMAJOR_AXIS":"6925.354","NORAD_CAT_ID":"46375","ECCENTRICITY":"0.00014070","MEAN_MOTION_DOT":"0.00005315","REV_AT_EPOCH":"6661","INCLINATION":"53.0523","SITE":"AFETR","ELEMENT_SET_NO":"999","COUNTRY_CODE":"US","OBJECT_ID":"2020-062BC","CLASSIFICATION_TYPE":"U","RA_OF_ASC_NODE":"229.9264","LAUNCH_DATE":"2020-09-03","TLE_LINE1":"1 46375U 20062BC  21313.48446423  .00005315  00000-0  37544-3 0  9990","CENTER_NAME":"EARTH","EPOCH":"2021-11-09T11:37:37.709472","EPHEMERIS_TYPE":"0","BSTAR":"0.00037544000000"},{"RA_OF_ASC_NODE":"229.8648","CLASSIFICATION_TYPE":"U","OBJECT_ID":"2020-062BD","COUNTRY_CODE":"US","ELEMENT_SET_NO":"999","BSTAR":"0.00054211000000","EPHEMERIS_TYPE":"0","EPOCH":"2021-11-09T11:58:52.118976","CENTER_NAME":"EARTH","TLE_LINE1":"1 46376U 20062BD  21313.49921434  .00007802  00000-0  54211-3 0  9995","LAUNCH_DATE":"2020-09-03","NORAD_CAT_ID":"46376","ECCENTRICITY":"0.00013230","SEMIMAJOR_AXIS":"6925.348","SITE":"AFETR","REV_AT_EPOCH":"6661","INCLINATION":"53.0521","MEAN_MOTION_DOT":"0.00007802","MEAN_MOTION_DDOT":"0.0000000000000","APOAPSIS":"548.130","DECAY_DATE":null,"ARG_OF_PERICENTER":"68.4558","REF_FRAME":"TEME","FILE":"3210161","MEAN_ANOMALY":"291.6572","MEAN_MOTION":"15.06400020","PERIOD":"95.592","OBJECT_TYPE":"PAYLOAD","TLE_LINE2":"2 46376  53.0521 229.8648 0001323  68.4558 291.6572 15.06400020 66617","TIME_SYSTEM":"UTC","OBJECT_NAME":"STARLINK-1742","RCS_SIZE":"LARGE","PERIAPSIS":"546.297","MEAN_ELEMENT_THEORY":"SGP4","GP_ID":"189338158"},{"NORAD_CAT_ID":"46378","ECCENTRICITY":"0.00014710","SEMIMAJOR_AXIS":"6925.379","INCLINATION":"53.0529","REV_AT_EPOCH":"6661","MEAN_MOTION_DOT":"0.00001060","SITE":"AFETR","ELEMENT_SET_NO":"999","CLASSIFICATION_TYPE":"U","RA_OF_ASC_NODE":"229.8164","COUNTRY_CODE":"US","OBJECT_ID":"2020-062BF","CENTER_NAME":"EARTH","EPOCH":"2021-11-09T12:14:46.496832","LAUNCH_DATE":"2020-09-03","TLE_LINE1":"1 46378U 20062BF  21313.51026038  .00001060  00000-0  90043-4 0  9990","EPHEMERIS_TYPE":"0","BSTAR":"0.00009004300000","PERIAPSIS":"546.225","MEAN_ELEMENT_THEORY":"SGP4","RCS_SIZE":"LARGE","TIME_SYSTEM":"UTC","OBJECT_NAME":"STARLINK-1751","GP_ID":"189337405","DECAY_DATE":null,"ARG_OF_PERICENTER":"67.7072","APOAPSIS":"548.263","MEAN_MOTION_DDOT":"0.0000000000000","OBJECT_TYPE":"PAYLOAD","PERIOD":"95.593","TLE_LINE2":"2 46378  53.0529 229.8164 0001471  67.7072 292.4072 15.06390116 66615","FILE":"3210161","REF_FRAME":"TEME","MEAN_ANOMALY":"292.4072","MEAN_MOTION":"15.06390116"},{"GP_ID":"189337156","RCS_SIZE":"LARGE","MEAN_ELEMENT_THEORY":"SGP4","PERIAPSIS":"546.130","OBJECT_NAME":"STARLINK-1758","TIME_SYSTEM":"UTC","TLE_LINE2":"2 46380  53.0530 254.7061 0001566  70.2049 289.9108 15.06399546 66270","PERIOD":"95.592","OBJECT_TYPE":"PAYLOAD","MEAN_ANOMALY":"289.9108","MEAN_MOTION":"15.06399546","REF_FRAME":"TEME","FILE":"3210161","ARG_OF_PERICENTER":"70.2049","DECAY_DATE":null,"APOAPSIS":"548.299","MEAN_MOTION_DDOT":"0.0000000000000","MEAN_MOTION_DOT":"-0.00000740","INCLINATION":"53.0530","REV_AT_EPOCH":"6627","SITE":"AFETR","SEMIMAJOR_AXIS":"6925.350","NORAD_CAT_ID":"46380","ECCENTRICITY":"0.00015660","LAUNCH_DATE":"2020-09-03","TLE_LINE1":"1 46380U 20062BH  21313.53189947 -.00000740  00000-0 -30750-4 0  9999","EPOCH":"2021-11-09T12:45:56.114208","CENTER_NAME":"EARTH","BSTAR":"-0.00003075000000","EPHEMERIS_TYPE":"0","ELEMENT_SET_NO":"999","OBJECT_ID":"2020-062BH","COUNTRY_CODE":"US","RA_OF_ASC_NODE":"254.7061","CLASSIFICATION_TYPE":"U"},{"SEMIMAJOR_AXIS":"6925.358","ECCENTRICITY":"0.00017500","NORAD_CAT_ID":"46382","MEAN_MOTION_DOT":"-0.00000797","INCLINATION":"53.0559","REV_AT_EPOCH":"6657","SITE":"AFETR","ELEMENT_SET_NO":"999","COUNTRY_CODE":"US","OBJECT_ID":"2020-062BK","CLASSIFICATION_TYPE":"U","RA_OF_ASC_NODE":"231.2928","TLE_LINE1":"1 46382U 20062BK  21313.18220409 -.00000797  00000-0 -34625-4 0  9998","LAUNCH_DATE":"2020-09-03","CENTER_NAME":"EARTH","EPOCH":"2021-11-09T04:22:22.433376","EPHEMERIS_TYPE":"0","BSTAR":"-0.00003462500000","MEAN_ELEMENT_THEORY":"SGP4","PERIAPSIS":"546.011","RCS_SIZE":"LARGE","OBJECT_NAME":"STARLINK-1769","TIME_SYSTEM":"UTC","GP_ID":"189338407","ARG_OF_PERICENTER":"79.3692","DECAY_DATE":null,"MEAN_MOTION_DDOT":"0.0000000000000","APOAPSIS":"548.435","TLE_LINE2":"2 46382  53.0559 231.2928 0001750  79.3692 280.7494 15.06397037 66577","OBJECT_TYPE":"PAYLOAD","PERIOD":"95.592","MEAN_ANOMALY":"280.7494","MEAN_MOTION":"15.06397037","FILE":"3210161","REF_FRAME":"TEME"},{"RCS_SIZE":"LARGE","MEAN_ELEMENT_THEORY":"SGP4","PERIAPSIS":"546.181","TIME_SYSTEM":"UTC","OBJECT_NAME":"STARLINK-1770","GP_ID":"189361907","DECAY_DATE":null,"ARG_OF_PERICENTER":"70.9697","MEAN_MOTION_DDOT":"0.0000000000000","APOAPSIS":"548.253","PERIOD":"95.592","OBJECT_TYPE":"PAYLOAD","TLE_LINE2":"2 46383  53.0547 274.2596 0001496  70.9697 289.1454 15.06398837 66008","REF_FRAME":"TEME","FILE":"3210180","MEAN_ANOMALY":"289.1454","MEAN_MOTION":"15.06398837","NORAD_CAT_ID":"46383","ECCENTRICITY":"0.00014960","SEMIMAJOR_AXIS":"6925.352","REV_AT_EPOCH":"6600","INCLINATION":"53.0547","MEAN_MOTION_DOT":"0.00000916","SITE":"AFETR","ELEMENT_SET_NO":"999","RA_OF_ASC_NODE":"274.2596","CLASSIFICATION_TYPE":"U","OBJECT_ID":"2020-062BL","COUNTRY_CODE":"US","EPOCH":"2021-11-09T15:11:54.183264","CENTER_NAME":"EARTH","TLE_LINE1":"1 46383U 20062BL  21313.63326601  .00000916  00000-0  80401-4 0  9994","LAUNCH_DATE":"2020-09-03","EPHEMERIS_TYPE":"0","BSTAR":"0.00008040100000"},{"SEMIMAJOR_AXIS":"6925.268","NORAD_CAT_ID":"46384","ECCENTRICITY":"0.00016080","MEAN_MOTION_DOT":"0.00010044","INCLINATION":"53.0532","REV_AT_EPOCH":"6603","SITE":"AFETR","ELEMENT_SET_NO":"999","COUNTRY_CODE":"US","OBJECT_ID":"2020-062BM","CLASSIFICATION_TYPE":"U","RA_OF_ASC_NODE":"273.3351","TLE_LINE1":"1 46384U 20062BM  21313.83600881  .00010044  00000-0  69174-3 0  9998","LAUNCH_DATE":"2020-09-03","CENTER_NAME":"EARTH","EPOCH":"2021-11-09T20:03:51.161184","EPHEMERIS_TYPE":"0","BSTAR":"0.00069174000000","PERIAPSIS":"546.019","MEAN_ELEMENT_THEORY":"SGP4","RCS_SIZE":"LARGE","OBJECT_NAME":"STARLINK-1771","TIME_SYSTEM":"UTC","GP_ID":"189362158","ARG_OF_PERICENTER":"64.8444","DECAY_DATE":null,"MEAN_MOTION_DDOT":"0.0000000000000","APOAPSIS":"548.247","TLE_LINE2":"2 46384  53.0532 273.3351 0001608  64.8444 295.2712 15.06426295 66037","OBJECT_TYPE":"PAYLOAD","PERIOD":"95.590","MEAN_ANOMALY":"295.2712","MEAN_MOTION":"15.06426295","FILE":"3210180","REF_FRAME":"TEME"}];
